<?xml version="1.0" encoding="UTF-8"?>
<ndm xmlns:xsi="http://www.w3.org/2001/XMLSchema-instance" xsi:noNamespaceSchemaLocation="https://sanaregistry.org/r/ndmxml_unqualified/ndmxml-2.0.0-master-2.0.xsd">
<omm id="CCSDS_OMM_VERS" version="2.0">
<header><CREATION_DATE/><ORIGINATOR/></header><body><segment><metadata><OBJECT_NAME>ONEWEB-0098</OBJECT_NAME><OBJECT_ID>2020-020U</OBJECT_ID><CENTER_NAME>EARTH</CENTER_NAME><REF_FRAME>TEME</REF_FRAME><TIME_SYSTEM>UTC</TIME_SYSTEM><MEAN_ELEMENT_THEORY>SGP4</MEAN_ELEMENT_THEORY></metadata><data><meanElements><EPOCH>2024-11-10T18:01:32.332224</EPOCH><MEAN_MOTION>13.11415468</MEAN_MOTION><ECCENTRICITY>.0001381</ECCENTRICITY><INCLINATION>87.8880</INCLINATION><RA_OF_ASC_NODE>137.3010</RA_OF_ASC_NODE><ARG_OF_PERICENTER>77.6132</ARG_OF_PERICENTER><MEAN_ANOMALY>282.5151</MEAN_ANOMALY></meanElements><tleParameters><EPHEMERIS_TYPE>0</EPHEMERIS_TYPE><CLASSIFICATION_TYPE>U</CLASSIFICATION_TYPE><NORAD_CAT_ID>45442</NORAD_CAT_ID><ELEMENT_SET_NO>999</ELEMENT_SET_NO><REV_AT_EPOCH>22617</REV_AT_EPOCH><BSTAR>-.32637E-4</BSTAR><MEAN_MOTION_DOT>.1E-7</MEAN_MOTION_DOT><MEAN_MOTION_DDOT>0</MEAN_MOTION_DDOT></tleParameters></data></segment></body></omm>
<omm id="CCSDS_OMM_VERS" version="2.0">
<header><CREATION_DATE/><ORIGINATOR/></header><body><segment><metadata><OBJECT_NAME>ONEWEB-0055</OBJECT_NAME><OBJECT_ID>2020-020V</OBJECT_ID><CENTER_NAME>EARTH</CENTER_NAME><REF_FRAME>TEME</REF_FRAME><TIME_SYSTEM>UTC</TIME_SYSTEM><MEAN_ELEMENT_THEORY>SGP4</MEAN_ELEMENT_THEORY></metadata><data><meanElements><EPOCH>2024-11-11T11:59:28.227264</EPOCH><MEAN_MOTION>13.11417081</MEAN_MOTION><ECCENTRICITY>.0001545</ECCENTRICITY><INCLINATION>87.8881</INCLINATION><RA_OF_ASC_NODE>137.1551</RA_OF_ASC_NODE><ARG_OF_PERICENTER>84.9862</ARG_OF_PERICENTER><MEAN_ANOMALY>275.1442</MEAN_ANOMALY></meanElements><tleParameters><EPHEMERIS_TYPE>0</EPHEMERIS_TYPE><CLASSIFICATION_TYPE>U</CLASSIFICATION_TYPE><NORAD_CAT_ID>45443</NORAD_CAT_ID><ELEMENT_SET_NO>999</ELEMENT_SET_NO><REV_AT_EPOCH>22624</REV_AT_EPOCH><BSTAR>.17689E-2</BSTAR><MEAN_MOTION_DOT>.64E-5</MEAN_MOTION_DOT><MEAN_MOTION_DDOT>0</MEAN_MOTION_DDOT></tleParameters></data></segment></body></omm>
<omm id="CCSDS_OMM_VERS" version="2.0">
<header><CREATION_DATE/><ORIGINATOR/></header><body><segment><metadata><OBJECT_NAME>ONEWEB-0093</OBJECT_NAME><OBJECT_ID>2020-020W</OBJECT_ID><CENTER_NAME>EARTH</CENTER_NAME><REF_FRAME>TEME</REF_FRAME><TIME_SYSTEM>UTC</TIME_SYSTEM><MEAN_ELEMENT_THEORY>SGP4</MEAN_ELEMENT_THEORY></metadata><data><meanElements><EPOCH>2024-11-11T11:24:02.897856</EPOCH><MEAN_MOTION>13.11420732</MEAN_MOTION><ECCENTRICITY>.0001742</ECCENTRICITY><INCLINATION>87.8882</INCLINATION><RA_OF_ASC_NODE>137.1424</RA_OF_ASC_NODE><ARG_OF_PERICENTER>82.1975</ARG_OF_PERICENTER><MEAN_ANOMALY>277.9351</MEAN_ANOMALY></meanElements><tleParameters><EPHEMERIS_TYPE>0</EPHEMERIS_TYPE><CLASSIFICATION_TYPE>U</CLASSIFICATION_TYPE><NORAD_CAT_ID>45444</NORAD_CAT_ID><ELEMENT_SET_NO>999</ELEMENT_SET_NO><REV_AT_EPOCH>22630</REV_AT_EPOCH><BSTAR>-.27898E-3</BSTAR><MEAN_MOTION_DOT>-.86E-6</MEAN_MOTION_DOT><MEAN_MOTION_DDOT>0</MEAN_MOTION_DDOT></tleParameters></data></segment></body></omm>
<omm id="CCSDS_OMM_VERS" version="2.0">
<header><CREATION_DATE/><ORIGINATOR/></header><body><segment><metadata><OBJECT_NAME>ONEWEB-0029</OBJECT_NAME><OBJECT_ID>2020-020X</OBJECT_ID><CENTER_NAME>EARTH</CENTER_NAME><REF_FRAME>TEME</REF_FRAME><TIME_SYSTEM>UTC</TIME_SYSTEM><MEAN_ELEMENT_THEORY>SGP4</MEAN_ELEMENT_THEORY></metadata><data><meanElements><EPOCH>2024-11-11T11:51:00.233280</EPOCH><MEAN_MOTION>13.11416230</MEAN_MOTION><ECCENTRICITY>.0001729</ECCENTRICITY><INCLINATION>87.8880</INCLINATION><RA_OF_ASC_NODE>137.1523</RA_OF_ASC_NODE><ARG_OF_PERICENTER>90.2165</ARG_OF_PERICENTER><MEAN_ANOMALY>269.9161</MEAN_ANOMALY></meanElements><tleParameters><EPHEMERIS_TYPE>0</EPHEMERIS_TYPE><CLASSIFICATION_TYPE>U</CLASSIFICATION_TYPE><NORAD_CAT_ID>45445</NORAD_CAT_ID><ELEMENT_SET_NO>999</ELEMENT_SET_NO><REV_AT_EPOCH>22628</REV_AT_EPOCH><BSTAR>.15305E-2</BSTAR><MEAN_MOTION_DOT>.555E-5</MEAN_MOTION_DOT><MEAN_MOTION_DDOT>0</MEAN_MOTION_DDOT></tleParameters></data></segment></body></omm>
<omm id="CCSDS_OMM_VERS" version="2.0">
<header><CREATION_DATE/><ORIGINATOR/></header><body><segment><metadata><OBJECT_NAME>ONEWEB-0068</OBJECT_NAME><OBJECT_ID>2020-020Y</OBJECT_ID><CENTER_NAME>EARTH</CENTER_NAME><REF_FRAME>TEME</REF_FRAME><TIME_SYSTEM>UTC</TIME_SYSTEM><MEAN_ELEMENT_THEORY>SGP4</MEAN_ELEMENT_THEORY></metadata><data><meanElements><EPOCH>2024-11-11T11:15:29.916864</EPOCH><MEAN_MOTION>13.11417942</MEAN_MOTION><ECCENTRICITY>.0001709</ECCENTRICITY><INCLINATION>87.8884</INCLINATION><RA_OF_ASC_NODE>137.1428</RA_OF_ASC_NODE><ARG_OF_PERICENTER>87.7558</ARG_OF_PERICENTER><MEAN_ANOMALY>272.3765</MEAN_ANOMALY></meanElements><tleParameters><EPHEMERIS_TYPE>0</EPHEMERIS_TYPE><CLASSIFICATION_TYPE>U</CLASSIFICATION_TYPE><NORAD_CAT_ID>45446</NORAD_CAT_ID><ELEMENT_SET_NO>999</ELEMENT_SET_NO><REV_AT_EPOCH>22622</REV_AT_EPOCH><BSTAR>-.10236E-2</BSTAR><MEAN_MOTION_DOT>-.35E-5</MEAN_MOTION_DOT><MEAN_MOTION_DDOT>0</MEAN_MOTION_DDOT></tleParameters></data></segment></body></omm>
<omm id="CCSDS_OMM_VERS" version="2.0">
<header><CREATION_DATE/><ORIGINATOR/></header><body><segment><metadata><OBJECT_NAME>ONEWEB-0046</OBJECT_NAME><OBJECT_ID>2020-020Z</OBJECT_ID><CENTER_NAME>EARTH</CENTER_NAME><REF_FRAME>TEME</REF_FRAME><TIME_SYSTEM>UTC</TIME_SYSTEM><MEAN_ELEMENT_THEORY>SGP4</MEAN_ELEMENT_THEORY></metadata><data><meanElements><EPOCH>2024-11-11T05:42:14.727744</EPOCH><MEAN_MOTION>13.11416966</MEAN_MOTION><ECCENTRICITY>.0001621</ECCENTRICITY><INCLINATION>87.8884</INCLINATION><RA_OF_ASC_NODE>137.2009</RA_OF_ASC_NODE><ARG_OF_PERICENTER>98.3207</ARG_OF_PERICENTER><MEAN_ANOMALY>261.8105</MEAN_ANOMALY></meanElements><tleParameters><EPHEMERIS_TYPE>0</EPHEMERIS_TYPE><CLASSIFICATION_TYPE>U</CLASSIFICATION_TYPE><NORAD_CAT_ID>45447</NORAD_CAT_ID><ELEMENT_SET_NO>999</ELEMENT_SET_NO><REV_AT_EPOCH>22620</REV_AT_EPOCH><BSTAR>-.11142E-2</BSTAR><MEAN_MOTION_DOT>-.382E-5</MEAN_MOTION_DOT><MEAN_MOTION_DDOT>0</MEAN_MOTION_DDOT></tleParameters></data></segment></body></omm>
<omm id="CCSDS_OMM_VERS" version="2.0">
<header><CREATION_DATE/><ORIGINATOR/></header><body><segment><metadata><OBJECT_NAME>ONEWEB-0063</OBJECT_NAME><OBJECT_ID>2020-020AA</OBJECT_ID><CENTER_NAME>EARTH</CENTER_NAME><REF_FRAME>TEME</REF_FRAME><TIME_SYSTEM>UTC</TIME_SYSTEM><MEAN_ELEMENT_THEORY>SGP4</MEAN_ELEMENT_THEORY></metadata><data><meanElements><EPOCH>2024-11-11T11:53:22.069248</EPOCH><MEAN_MOTION>13.11418639</MEAN_MOTION><ECCENTRICITY>.0001455</ECCENTRICITY><INCLINATION>87.8884</INCLINATION><RA_OF_ASC_NODE>137.1493</RA_OF_ASC_NODE><ARG_OF_PERICENTER>97.2299</ARG_OF_PERICENTER><MEAN_ANOMALY>262.8995</MEAN_ANOMALY></meanElements><tleParameters><EPHEMERIS_TYPE>0</EPHEMERIS_TYPE><CLASSIFICATION_TYPE>U</CLASSIFICATION_TYPE><NORAD_CAT_ID>45448</NORAD_CAT_ID><ELEMENT_SET_NO>999</ELEMENT_SET_NO><REV_AT_EPOCH>22632</REV_AT_EPOCH><BSTAR>.1732E-2</BSTAR><MEAN_MOTION_DOT>.627E-5</MEAN_MOTION_DOT><MEAN_MOTION_DDOT>0</MEAN_MOTION_DDOT></tleParameters></data></segment></body></omm>
<omm id="CCSDS_OMM_VERS" version="2.0">
<header><CREATION_DATE/><ORIGINATOR/></header><body><segment><metadata><OBJECT_NAME>ONEWEB-0019</OBJECT_NAME><OBJECT_ID>2020-020AB</OBJECT_ID><CENTER_NAME>EARTH</CENTER_NAME><REF_FRAME>TEME</REF_FRAME><TIME_SYSTEM>UTC</TIME_SYSTEM><MEAN_ELEMENT_THEORY>SGP4</MEAN_ELEMENT_THEORY></metadata><data><meanElements><EPOCH>2024-11-11T11:16:43.214304</EPOCH><MEAN_MOTION>13.11419973</MEAN_MOTION><ECCENTRICITY>.0001379</ECCENTRICITY><INCLINATION>87.8888</INCLINATION><RA_OF_ASC_NODE>137.1634</RA_OF_ASC_NODE><ARG_OF_PERICENTER>84.7781</ARG_OF_PERICENTER><MEAN_ANOMALY>275.3504</MEAN_ANOMALY></meanElements><tleParameters><EPHEMERIS_TYPE>0</EPHEMERIS_TYPE><CLASSIFICATION_TYPE>U</CLASSIFICATION_TYPE><NORAD_CAT_ID>45449</NORAD_CAT_ID><ELEMENT_SET_NO>999</ELEMENT_SET_NO><REV_AT_EPOCH>22616</REV_AT_EPOCH><BSTAR>-.79573E-3</BSTAR><MEAN_MOTION_DOT>-.269E-5</MEAN_MOTION_DOT><MEAN_MOTION_DDOT>0</MEAN_MOTION_DDOT></tleParameters></data></segment></body></omm>

</ndm>
