ONEWEB-0098             
1 45442U 20020U   24315.75106866  .00000001  00000+0 -32637-4 0  9993
2 45442  87.8880 137.3010 0001381  77.6132 282.5151 13.11415468226170
ONEWEB-0055             
1 45443U 20020V   24316.49963226  .00000640  00000+0  17689-2 0  9993
2 45443  87.8881 137.1551 0001545  84.9862 275.1442 13.11417081226245
ONEWEB-0093             
1 45444U 20020W   24316.47503354 -.00000086  00000+0 -27898-3 0  9994
2 45444  87.8882 137.1424 0001742  82.1975 277.9351 13.11420732226303
ONEWEB-0029             
1 45445U 20020X   24316.49375270  .00000555  00000+0  15305-2 0  9999
2 45445  87.8880 137.1523 0001729  90.2165 269.9161 13.11416230226283
ONEWEB-0068             
1 45446U 20020Y   24316.46909626 -.00000350  00000+0 -10236-2 0  9998
2 45446  87.8884 137.1428 0001709  87.7558 272.3765 13.11417942226220
ONEWEB-0046             
1 45447U 20020Z   24316.23767046 -.00000382  00000+0 -11142-2 0  9994
2 45447  87.8884 137.2009 0001621  98.3207 261.8105 13.11416966226203
ONEWEB-0063             
1 45448U 20020AA  24316.49539432  .00000627  00000+0  17320-2 0  9993
2 45448  87.8884 137.1493 0001455  97.2299 262.8995 13.11418639226324
ONEWEB-0019             
1 45449U 20020AB  24316.46994461 -.00000269  00000+0 -79573-3 0  9991
2 45449  87.8888 137.1634 0001379  84.7781 275.3504 13.11419973226167
